{"type":"FeatureCollection","features":[{"type":"Feature","properties":{"name":"3417 Texas"},"geometry":{"type":"Polygon","coordinates":[[[-90.227277,38.593013],[-90.227342,38.592685],[-90.226931,38.592629],[-90.226867,38.592956],[-90.227277,38.593013]]]}},{"type":"Feature","properties":{"name":"3333 Ohio"},"geometry":{"type":"Polygon","coordinates":[[[-90.227653,38.594537],[-90.228077,38.594591],[-90.228151,38.594257],[-90.22772,38.594202],[-90.227653,38.594537]]]}},{"type":"Feature","properties":{"name":"3340 California"},"geometry":{"type":"Polygon","coordinates":[[[-90.229281,38.594459],[-90.229785,38.594524],[-90.229841,38.594266],[-90.229336,38.594202],[-90.229281,38.594459]]]}}]}